ONEWEB-0363             
1 49289U 21090L   26009.52991444  .00000144  00000+0  32167-3 0  9999
2 49289  87.9232 306.0865 0002086  79.6549 280.4819 13.20771211209366
ONEWEB-0364             
1 49290U 21090M   26009.56779543  .00000022  00000+0  22650-4 0  9991
2 49290  87.9221 306.0994 0001855  78.0008 282.1334 13.20770889210504
ONEWEB-0365             
1 49291U 21090N   26009.42634799  .00000036  00000+0  58514-4 0  9993
2 49291  87.9236 336.5437 0001689  78.9504 281.1819 13.19726744205483
ONEWEB-0366             
1 49292U 21090P   26009.57805529 -.00000448  00000+0 -12426-2 0  9990
2 49292  87.9015 321.3227 0001790  80.2352 279.8980 13.14501469206729
ONEWEB-0367             
1 49293U 21090Q   26009.37682860  .00000149  00000+0  33397-3 0  9997
2 49293  87.9232 306.1162 0001555  74.4760 285.6545 13.20772116208862
ONEWEB-0368             
1 49294U 21090R   26009.34999925 -.00000040  00000+0 -13030-3 0  9992
2 49294  87.9223 306.1488 0002349  62.1008 298.0363 13.20772432210012
ONEWEB-0369             
1 49295U 21090S   26009.42159757  .00000067  00000+0  13530-3 0  9995
2 49295  87.9224 336.5689 0001796  78.5552 281.5782 13.19724368205473
ONEWEB-0370             
1 49296U 21090T   26009.53780959  .00000103  00000+0  22229-3 0  9998
2 49296  87.9229 306.0872 0001497  84.9746 275.1558 13.20771521208927
